CCSDS_OMM_VERS = 2.0
CREATION_DATE  = 
ORIGINATOR     = 

OBJECT_NAME    = STARLINK-36119
OBJECT_ID      = 2026-020C
CENTER_NAME    = EARTH
REF_FRAME      = TEME
TIME_SYSTEM    = UTC
MEAN_ELEMENT_THEORY = SGP/SGP4

EPOCH          = 2026-02-21T09:30:12.970944
MEAN_MOTION    = 15.76552663
ECCENTRICITY   = .0001867
INCLINATION    = 42.9982
RA_OF_ASC_NODE = 241.2781
ARG_OF_PERICENTER = 260.5068
MEAN_ANOMALY   = 99.5591

EPHEMERIS_TYPE = 0
CLASSIFICATION_TYPE = U
NORAD_CAT_ID   = 67619
ELEMENT_SET_NO = 999
REV_AT_EPOCH   = 351
BSTAR          = .23651E-2
MEAN_MOTION_DOT = .407066E-2
MEAN_MOTION_DDOT = 0

CCSDS_OMM_VERS = 2.0
CREATION_DATE  = 
ORIGINATOR     = 

OBJECT_NAME    = STARLINK-36607
OBJECT_ID      = 2026-020D
CENTER_NAME    = EARTH
REF_FRAME      = TEME
TIME_SYSTEM    = UTC
MEAN_ELEMENT_THEORY = SGP/SGP4

EPOCH          = 2026-02-21T12:00:01.999296
MEAN_MOTION    = 15.76386256
ECCENTRICITY   = .0001502
INCLINATION    = 42.9995
RA_OF_ASC_NODE = 240.2112
ARG_OF_PERICENTER = 253.1645
MEAN_ANOMALY   = 152.2161

EPHEMERIS_TYPE = 0
CLASSIFICATION_TYPE = U
NORAD_CAT_ID   = 67620
ELEMENT_SET_NO = 999
REV_AT_EPOCH   = 478
BSTAR          = -.47322E-3
MEAN_MOTION_DOT = -.76918E-3
MEAN_MOTION_DDOT = 0

CCSDS_OMM_VERS = 2.0
CREATION_DATE  = 
ORIGINATOR     = 

OBJECT_NAME    = STARLINK-36615
OBJECT_ID      = 2026-020E
CENTER_NAME    = EARTH
REF_FRAME      = TEME
TIME_SYSTEM    = UTC
MEAN_ELEMENT_THEORY = SGP/SGP4

EPOCH          = 2026-02-20T21:55:43.856256
MEAN_MOTION    = 15.82231414
ECCENTRICITY   = .0002588
INCLINATION    = 42.9978
RA_OF_ASC_NODE = 243.6588
ARG_OF_PERICENTER = 277.8799
MEAN_ANOMALY   = 82.1779

EPHEMERIS_TYPE = 0
CLASSIFICATION_TYPE = U
NORAD_CAT_ID   = 67621
ELEMENT_SET_NO = 999
REV_AT_EPOCH   = 344
BSTAR          = .21428E-2
MEAN_MOTION_DOT = .481489E-2
MEAN_MOTION_DDOT = 0

CCSDS_OMM_VERS = 2.0
CREATION_DATE  = 
ORIGINATOR     = 

OBJECT_NAME    = STARLINK-36614
OBJECT_ID      = 2026-020F
CENTER_NAME    = EARTH
REF_FRAME      = TEME
TIME_SYSTEM    = UTC
MEAN_ELEMENT_THEORY = SGP/SGP4

EPOCH          = 2026-02-21T12:26:23.121024
MEAN_MOTION    = 15.76404542
ECCENTRICITY   = .0002284
INCLINATION    = 42.9984
RA_OF_ASC_NODE = 240.4741
ARG_OF_PERICENTER = 293.2458
MEAN_ANOMALY   = 66.8171

EPHEMERIS_TYPE = 0
CLASSIFICATION_TYPE = U
NORAD_CAT_ID   = 67622
ELEMENT_SET_NO = 999
REV_AT_EPOCH   = 353
BSTAR          = .18244E-2
MEAN_MOTION_DOT = .308185E-2
MEAN_MOTION_DDOT = 0

CCSDS_OMM_VERS = 2.0
CREATION_DATE  = 
ORIGINATOR     = 

OBJECT_NAME    = STARLINK-36600
OBJECT_ID      = 2026-020G
CENTER_NAME    = EARTH
REF_FRAME      = TEME
TIME_SYSTEM    = UTC
MEAN_ELEMENT_THEORY = SGP/SGP4

EPOCH          = 2026-02-21T12:29:32.245440
MEAN_MOTION    = 15.76393958
ECCENTRICITY   = .0001362
INCLINATION    = 42.9981
RA_OF_ASC_NODE = 240.4896
ARG_OF_PERICENTER = 253.7487
MEAN_ANOMALY   = 106.3232

EPHEMERIS_TYPE = 0
CLASSIFICATION_TYPE = U
NORAD_CAT_ID   = 67623
ELEMENT_SET_NO = 999
REV_AT_EPOCH   = 353
BSTAR          = .10443E-2
MEAN_MOTION_DOT = .173289E-2
MEAN_MOTION_DDOT = 0

CCSDS_OMM_VERS = 2.0
CREATION_DATE  = 
ORIGINATOR     = 

OBJECT_NAME    = STARLINK-36439
OBJECT_ID      = 2026-020H
CENTER_NAME    = EARTH
REF_FRAME      = TEME
TIME_SYSTEM    = UTC
MEAN_ELEMENT_THEORY = SGP/SGP4

EPOCH          = 2026-02-21T12:13:46.346016
MEAN_MOTION    = 15.77005657
ECCENTRICITY   = .0004801
INCLINATION    = 42.9991
RA_OF_ASC_NODE = 240.4015
ARG_OF_PERICENTER = 253.7244
MEAN_ANOMALY   = 106.3097

EPHEMERIS_TYPE = 0
CLASSIFICATION_TYPE = U
NORAD_CAT_ID   = 67624
ELEMENT_SET_NO = 999
REV_AT_EPOCH   = 353
BSTAR          = .27831E-2
MEAN_MOTION_DOT = .493987E-2
MEAN_MOTION_DDOT = 0

CCSDS_OMM_VERS = 2.0
CREATION_DATE  = 
ORIGINATOR     = 

OBJECT_NAME    = STARLINK-36438
OBJECT_ID      = 2026-020J
CENTER_NAME    = EARTH
REF_FRAME      = TEME
TIME_SYSTEM    = UTC
MEAN_ELEMENT_THEORY = SGP/SGP4

EPOCH          = 2026-02-21T12:23:13.859232
MEAN_MOTION    = 15.76564470
ECCENTRICITY   = .0001672
INCLINATION    = 42.9978
RA_OF_ASC_NODE = 240.4539
ARG_OF_PERICENTER = 257.2222
MEAN_ANOMALY   = 102.8461

EPHEMERIS_TYPE = 0
CLASSIFICATION_TYPE = U
NORAD_CAT_ID   = 67625
ELEMENT_SET_NO = 999
REV_AT_EPOCH   = 353
BSTAR          = .19138E-2
MEAN_MOTION_DOT = .326305E-2
MEAN_MOTION_DDOT = 0

CCSDS_OMM_VERS = 2.0
CREATION_DATE  = 
ORIGINATOR     = 

OBJECT_NAME    = STARLINK-36436
OBJECT_ID      = 2026-020K
CENTER_NAME    = EARTH
REF_FRAME      = TEME
TIME_SYSTEM    = UTC
MEAN_ELEMENT_THEORY = SGP/SGP4

EPOCH          = 2026-02-21T12:00:01.999296
MEAN_MOTION    = 15.76351578
ECCENTRICITY   = .0001856
INCLINATION    = 42.9992
RA_OF_ASC_NODE = 240.1487
ARG_OF_PERICENTER = 243.4719
MEAN_ANOMALY   = 186.8025

EPHEMERIS_TYPE = 0
CLASSIFICATION_TYPE = U
NORAD_CAT_ID   = 67626
ELEMENT_SET_NO = 999
REV_AT_EPOCH   = 478
BSTAR          = -.28372E-4
MEAN_MOTION_DOT = -.5102E-4
MEAN_MOTION_DDOT = 0

CCSDS_OMM_VERS = 2.0
CREATION_DATE  = 
ORIGINATOR     = 

OBJECT_NAME    = STARLINK-36502
OBJECT_ID      = 2026-020L
CENTER_NAME    = EARTH
REF_FRAME      = TEME
TIME_SYSTEM    = UTC
MEAN_ELEMENT_THEORY = SGP/SGP4

EPOCH          = 2026-02-21T11:28:31.571616
MEAN_MOTION    = 15.81808710
ECCENTRICITY   = .000823
INCLINATION    = 42.9989
RA_OF_ASC_NODE = 240.1467
ARG_OF_PERICENTER = 234.6842
MEAN_ANOMALY   = 125.3261

EPHEMERIS_TYPE = 0
CLASSIFICATION_TYPE = U
NORAD_CAT_ID   = 67627
ELEMENT_SET_NO = 999
REV_AT_EPOCH   = 353
BSTAR          = .18586E-2
MEAN_MOTION_DOT = .406408E-2
MEAN_MOTION_DDOT = 0

CCSDS_OMM_VERS = 2.0
CREATION_DATE  = 
ORIGINATOR     = 

OBJECT_NAME    = STARLINK-36532
OBJECT_ID      = 2026-020M
CENTER_NAME    = EARTH
REF_FRAME      = TEME
TIME_SYSTEM    = UTC
MEAN_ELEMENT_THEORY = SGP/SGP4

EPOCH          = 2026-02-21T00:00:02.000160
MEAN_MOTION    = 15.82335971
ECCENTRICITY   = .00017538
INCLINATION    = 42.9990
RA_OF_ASC_NODE = 243.0484
ARG_OF_PERICENTER = 255.9501
MEAN_ANOMALY   = 269.5962

EPHEMERIS_TYPE = 0
CLASSIFICATION_TYPE = U
NORAD_CAT_ID   = 67628
ELEMENT_SET_NO = 999
REV_AT_EPOCH   = 470
BSTAR          = -.56006967E-2
MEAN_MOTION_DOT = -.1059876E-1
MEAN_MOTION_DDOT = 0

CCSDS_OMM_VERS = 2.0
CREATION_DATE  = 
ORIGINATOR     = 

OBJECT_NAME    = STARLINK-36367
OBJECT_ID      = 2026-020N
CENTER_NAME    = EARTH
REF_FRAME      = TEME
TIME_SYSTEM    = UTC
MEAN_ELEMENT_THEORY = SGP/SGP4

EPOCH          = 2026-02-21T00:00:02.000160
MEAN_MOTION    = 15.76321875
ECCENTRICITY   = .00016764
INCLINATION    = 42.9990
RA_OF_ASC_NODE = 243.3452
ARG_OF_PERICENTER = 271.3267
MEAN_ANOMALY   = 135.8083

EPHEMERIS_TYPE = 0
CLASSIFICATION_TYPE = U
NORAD_CAT_ID   = 67629
ELEMENT_SET_NO = 999
REV_AT_EPOCH   = 470
BSTAR          = .44424279E-3
MEAN_MOTION_DOT = .7233E-3
MEAN_MOTION_DDOT = 0

CCSDS_OMM_VERS = 2.0
CREATION_DATE  = 
ORIGINATOR     = 

OBJECT_NAME    = STARLINK-36416
OBJECT_ID      = 2026-020P
CENTER_NAME    = EARTH
REF_FRAME      = TEME
TIME_SYSTEM    = UTC
MEAN_ELEMENT_THEORY = SGP/SGP4

EPOCH          = 2026-02-20T22:38:56.512032
MEAN_MOTION    = 15.76402842
ECCENTRICITY   = .0001881
INCLINATION    = 42.9979
RA_OF_ASC_NODE = 243.9029
ARG_OF_PERICENTER = 266.3830
MEAN_ANOMALY   = 93.6824

EPHEMERIS_TYPE = 0
CLASSIFICATION_TYPE = U
NORAD_CAT_ID   = 67630
ELEMENT_SET_NO = 999
REV_AT_EPOCH   = 344
BSTAR          = .18603E-2
MEAN_MOTION_DOT = .314457E-2
MEAN_MOTION_DDOT = 0

