STARLINK-36119          
1 67619U 26020C   26052.39598346  .00407066  00000+0  23651-2 0  9992
2 67619  42.9982 241.2781 0001867 260.5068  99.5591 15.76552663  3512
STARLINK-36607          
1 67620U 26020D   26052.50002314 -.00076918  00000+0 -47322-3 0  9994
2 67620  42.9995 240.2112 0001502 253.1645 152.2161 15.76386256  4783
STARLINK-36615          
1 67621U 26020E   26051.91370204  .00481489  00000+0  21428-2 0  9994
2 67621  42.9978 243.6588 0002588 277.8799  82.1779 15.82231414  3447
STARLINK-36614          
1 67622U 26020F   26052.51832316  .00308185  00000+0  18244-2 0  9992
2 67622  42.9984 240.4741 0002284 293.2458  66.8171 15.76404542  3530
STARLINK-36600          
1 67623U 26020G   26052.52051210  .00173289  00000+0  10443-2 0  9998
2 67623  42.9981 240.4896 0001362 253.7487 106.3232 15.76393958  3534
STARLINK-36439          
1 67624U 26020H   26052.50956419  .00493987  00000+0  27831-2 0  9991
2 67624  42.9991 240.4015 0004801 253.7244 106.3097 15.77005657  3537
STARLINK-36438          
1 67625U 26020J   26052.51613263  .00326305  00000+0  19138-2 0  9990
2 67625  42.9978 240.4539 0001672 257.2222 102.8461 15.76564470  3530
STARLINK-36436          
1 67626U 26020K   26052.50002314 -.00005102  00000+0 -28372-4 0  9992
2 67626  42.9992 240.1487 0001856 243.4719 186.8025 15.76351578  4787
STARLINK-36502          
1 67627U 26020L   26052.47814319  .00406408  00000+0  18586-2 0  9991
2 67627  42.9989 240.1467 0008230 234.6842 125.3261 15.81808710  3537
STARLINK-36532          
1 67628U 26020M   26052.00002315 -.01059876  00000+0 -56007-2 0  9992
2 67628  42.9990 243.0484 0001753 255.9501 269.5962 15.82335971  4706
STARLINK-36367          
1 67629U 26020N   26052.00002315  .00072330  00000+0  44424-3 0  9991
2 67629  42.9990 243.3452 0001676 271.3267 135.8083 15.76321875  4700
STARLINK-36416          
1 67630U 26020P   26051.94370963  .00314457  00000+0  18603-2 0  9990
2 67630  42.9979 243.9029 0001881 266.3830  93.6824 15.76402842  3441
